1 49095U 21075W   23305.92785878  .00000051  00000-0  98623-4 0  9997
2 49095  87.9244 196.3221 0001053  88.8427 271.2826 13.17651764107381
1 49096U 21075X   23305.93486936 -.00000090  00000-0 -28559-3 0  9997
2 49096  87.9055 181.2176 0001302  74.7340 285.3932 13.12444340109492
1 49097U 21075Y   23305.93419152  .00000025  00000-0  31681-4 0  9991
2 49097  87.9179 196.3223 0001956  87.5017 272.6339 13.17649122107430
1 49098U 21075Z   23305.94683975 -.00000049  00000-0 -15881-3 0  9990
2 49098  87.9263 196.3407 0001485  93.8070 266.3231 13.17651574107418
1 49099U 21075AA  23305.92575433  .00000073  00000-0  15417-3 0  9998
2 49099  87.9242 196.3573 0001596  88.3807 271.7507 13.17648915107400
1 49100U 21075AB  23305.76754988  .00000113  00000-0  25718-3 0  9997
2 49100  87.9246 196.3511 0001591  97.1607 262.9706 13.17648267107357
1 49101U 21075AC  23305.90770417 -.00000270  00000-0 -79045-3 0  9997
2 49101  87.9046 181.2312 0001856  72.8477 287.2854 13.11949134110479
1 49102U 21075AD  23305.91462305  .00000210  00000-0  49979-3 0  9998
2 49102  87.9174 166.0967 0002789  90.5506 269.5946 13.18686572110910
